{"type": "FeatureCollection", "features": [ {"type": "Feature", "properties": {"norad_id": 37925, "name": "FENGYUN 1C DEB", "group": "fengyun-1c-debris", "lat": -59.95631963080491, "lon": -139.26253637735897, "alt_km": 626.0259685706305, "timestamp": "2025-12-02T19:35:50.845657+00:00", "meta": {"OBJECT_NAME": "FENGYUN 1C DEB", "OBJECT_ID": "1999-025EPA", "EPOCH": "2025-11-29T09:06:27.767520", "MEAN_MOTION": 14.79724528, "ECCENTRICITY": 0.00581267, "INCLINATION": 99.0878, "RA_OF_ASC_NODE": 200.7871, "ARG_OF_PERICENTER": 24.2327, "MEAN_ANOMALY": 336.1595, "EPHEMERIS_TYPE": 0, "CLASSIFICATION_TYPE": "U", "NORAD_CAT_ID": 37925, "ELEMENT_SET_NO": 999, "REV_AT_EPOCH": 65485, "BSTAR": 0.0016156282, "MEAN_MOTION_DOT": 0.00012446, "MEAN_MOTION_DDOT": 0}, "tle": {"line1": "1 37925U 99025EPA 25333.37948805  .00012446  00000+0  16156-2 0  9998", "line2": "2 37925  99.0878 200.7871 0058126  24.2327 336.1595 14.79724528654855"}}, "geometry": {"type": "Point", "coordinates": [-139.26253637735897, -59.95631963080491]}}, {"type": "Feature", "properties": {"norad_id": 37926, "name": "FENGYUN 1C DEB", "group": "fengyun-1c-debris", "lat": -17.52672692756015, "lon": 42.84010212670474, "alt_km": 817.9264938419092, "timestamp": "2025-12-02T19:35:50.845667+00:00", "meta": {"OBJECT_NAME": "FENGYUN 1C DEB", "OBJECT_ID": "1999-025EPB", "EPOCH": "2025-12-02T03:08:35.325024", "MEAN_MOTION": 14.24095392, "ECCENTRICITY": 0.00533864, "INCLINATION": 98.7254, "RA_OF_ASC_NODE": 39.3797, "ARG_OF_PERICENTER": 251.7953, "MEAN_ANOMALY": 177.074, "EPHEMERIS_TYPE": 0, "CLASSIFICATION_TYPE": "U", "NORAD_CAT_ID": 37926, "ELEMENT_SET_NO": 999, "REV_AT_EPOCH": 74119, "BSTAR": 0.0018273618, "MEAN_MOTION_DOT": 4.223e-05, "MEAN_MOTION_DDOT": 0}, "tle": {"line1": "1 37926U 99025EPB 25336.13096441  .00004223  00000+0  18274-2 0  9993", "line2": "2 37926  98.7254  39.3797 0053386 251.7953 177.0740 14.24095392741196"}}, "geometry": {"type": "Point", "coordinates": [42.84010212670474, -17.52672692756015]}}, {"type": "Feature", "properties": {"norad_id": 37927, "name": "FENGYUN 1C DEB", "group": "fengyun-1c-debris", "lat": 63.86215208085812, "lon": 101.27164753240056, "alt_km": 655.5270359000478, "timestamp": "2025-12-02T19:35:50.845677+00:00", "meta": {"OBJECT_NAME": "FENGYUN 1C DEB", "OBJECT_ID": "1999-025EPC", "EPOCH": "2025-11-29T16:11:45.032064", "MEAN_MOTION": 14.70717717, "ECCENTRICITY": 0.00076239, "INCLINATION": 98.8072, "RA_OF_ASC_NODE": 116.2969, "ARG_OF_PERICENTER": 304.8102, "MEAN_ANOMALY": 55.2384, "EPHEMERIS_TYPE": 0, "CLASSIFICATION_TYPE": "U", "NORAD_CAT_ID": 37927, "ELEMENT_SET_NO": 999, "REV_AT_EPOCH": 64924, "BSTAR": 0.0038923403, "MEAN_MOTION_DOT": 0.00023758, "MEAN_MOTION_DDOT": 0}, "tle": {"line1": "1 37927U 99025EPC 25333.67482676  .00023758  00000+0  38923-2 0  9996", "line2": "2 37927  98.8072 116.2969 0007623 304.8102  55.2384 14.70717717649248"}}, "geometry": {"type": "Point", "coordinates": [101.27164753240056, 63.86215208085812]}}, {"type": "Feature", "properties": {"norad_id": 37928, "name": "FENGYUN 1C DEB", "group": "fengyun-1c-debris", "lat": 31.664619805781204, "lon": 36.61013581131584, "alt_km": 762.4371284067938, "timestamp": "2025-12-02T19:35:50.845687+00:00", "meta": {"OBJECT_NAME": "FENGYUN 1C DEB", "OBJECT_ID": "1999-025EPD", "EPOCH": "2025-11-28T09:38:34.088352", "MEAN_MOTION": 14.37023237, "ECCENTRICITY": 0.00733565, "INCLINATION": 98.9159, "RA_OF_ASC_NODE": 206.4819, "ARG_OF_PERICENTER": 74.7645, "MEAN_ANOMALY": 286.1636, "EPHEMERIS_TYPE": 0, "CLASSIFICATION_TYPE": "U", "NORAD_CAT_ID": 37928, "ELEMENT_SET_NO": 999, "REV_AT_EPOCH": 80986, "BSTAR": 0.00065957038, "MEAN_MOTION_DOT": 1.971e-05, "MEAN_MOTION_DDOT": 0}, "tle": {"line1": "1 37928U 99025EPD 25332.40178343  .00001971  00000+0  65957-3 0  9991", "line2": "2 37928  98.9159 206.4819 0073356  74.7645 286.1636 14.37023237809864"}}, "geometry": {"type": "Point", "coordinates": [36.61013581131584, 31.664619805781204]}}, {"type": "Feature", "properties": {"norad_id": 38116, "name": "FENGYUN 1C DEB", "group": "fengyun-1c-debris", "lat": 16.902372526262482, "lon": -161.5784726596388, "alt_km": 785.2415057754542, "timestamp": "2025-12-02T19:35:50.845698+00:00", "meta": {"OBJECT_NAME": "FENGYUN 1C DEB", "OBJECT_ID": "1999-025EPM", "EPOCH": "2025-11-28T20:45:55.302624", "MEAN_MOTION": 14.16973073, "ECCENTRICITY": 0.0072, "INCLINATION": 98.7141, "RA_OF_ASC_NODE": 11.879, "ARG_OF_PERICENTER": 186.1596, "MEAN_ANOMALY": 351.8835, "EPHEMERIS_TYPE": 0, "CLASSIFICATION_TYPE": "U", "NORAD_CAT_ID": 38116, "ELEMENT_SET_NO": 999, "REV_AT_EPOCH": 64288, "BSTAR": 0.00050837388, "MEAN_MOTION_DOT": 1.004e-05, "MEAN_MOTION_DDOT": 0}, "tle": {"line1": "1 38116U 99025EPM 25332.86522341  .00001004  00000+0  50837-3 0  9990", "line2": "2 38116  98.7141  11.8790 0072000 186.1596 351.8835 14.16973073642884"}}, "geometry": {"type": "Point", "coordinates": [-161.5784726596388, 16.902372526262482]}}, {"type": "Feature", "properties": {"norad_id": 38121, "name": "FENGYUN 1C DEB", "group": "fengyun-1c-debris", "lat": -80.77252968089034, "lon": -133.24229026975806, "alt_km": 881.3448549571112, "timestamp": "2025-12-02T19:35:50.845708+00:00", "meta": {"OBJECT_NAME": "FENGYUN 1C DEB", "OBJECT_ID": "1999-025EPS", "EPOCH": "2025-11-29T04:12:17.244576", "MEAN_MOTION": 14.2162433, "ECCENTRICITY": 0.02065546, "INCLINATION": 99.115, "RA_OF_ASC_NODE": 124.1974, "ARG_OF_PERICENTER": 166.4816, "MEAN_ANOMALY": 194.2011, "EPHEMERIS_TYPE": 0, "CLASSIFICATION_TYPE": "U", "NORAD_CAT_ID": 38121, "ELEMENT_SET_NO": 999, "REV_AT_EPOCH": 83727, "BSTAR": 0.001349076, "MEAN_MOTION_DOT": 3.628e-05, "MEAN_MOTION_DDOT": 0}, "tle": {"line1": "1 38121U 99025EPS 25333.17519959  .00003628  00000+0  13491-2 0  9990", "line2": "2 38121  99.1150 124.1974 0206554 166.4816 194.2011 14.21624330837275"}}, "geometry": {"type": "Point", "coordinates": [-133.24229026975806, -80.77252968089034]}}, {"type": "Feature", "properties": {"norad_id": 38122, "name": "FENGYUN 1C DEB", "group": "fengyun-1c-debris", "lat": 3.3071263094927446, "lon": 159.97003249490183, "alt_km": 592.8633878426717, "timestamp": "2025-12-02T19:35:50.845718+00:00", "meta": {"OBJECT_NAME": "FENGYUN 1C DEB", "OBJECT_ID": "1999-025EPT", "EPOCH": "2025-12-01T11:08:56.211936", "MEAN_MOTION": 14.42584925, "ECCENTRICITY": 0.02274427, "INCLINATION": 98.3168, "RA_OF_ASC_NODE": 338.1659, "ARG_OF_PERICENTER": 191.0164, "MEAN_ANOMALY": 168.5999, "EPHEMERIS_TYPE": 0, "CLASSIFICATION_TYPE": "U", "NORAD_CAT_ID": 38122, "ELEMENT_SET_NO": 999, "REV_AT_EPOCH": 67576, "BSTAR": 0.00049183009, "MEAN_MOTION_DOT": 2.179e-05, "MEAN_MOTION_DDOT": 0}, "tle": {"line1": "1 38122U 99025EPT 25335.46453949  .00002179  00000+0  49183-3 0  9999", "line2": "2 38122  98.3168 338.1659 0227442 191.0164 168.5999 14.42584925675763"}}, "geometry": {"type": "Point", "coordinates": [159.97003249490183, 3.3071263094927446]}}, {"type": "Feature", "properties": {"norad_id": 38124, "name": "FENGYUN 1C DEB", "group": "fengyun-1c-debris", "lat": 41.01382515418826, "lon": 118.48209911064416, "alt_km": 1361.8751786594185, "timestamp": "2025-12-02T19:35:50.845729+00:00", "meta": {"OBJECT_NAME": "FENGYUN 1C DEB", "OBJECT_ID": "1999-025EPV", "EPOCH": "2025-11-17T02:51:17.993664", "MEAN_MOTION": 13.40908773, "ECCENTRICITY": 0.03570409, "INCLINATION": 97.805, "RA_OF_ASC_NODE": 279.4801, "ARG_OF_PERICENTER": 12.4947, "MEAN_ANOMALY": 348.4759, "EPHEMERIS_TYPE": 0, "CLASSIFICATION_TYPE": "U", "NORAD_CAT_ID": 38124, "ELEMENT_SET_NO": 999, "REV_AT_EPOCH": 54238, "BSTAR": 0.00079426358, "MEAN_MOTION_DOT": 6.08e-06, "MEAN_MOTION_DDOT": 0}, "tle": {"line1": "1 38124U 99025EPV 25321.11895826  .00000608  00000+0  79426-3 0  9990", "line2": "2 38124  97.8050 279.4801 0357040  12.4947 348.4759 13.40908773542380"}}, "geometry": {"type": "Point", "coordinates": [118.48209911064416, 41.01382515418826]}}, {"type": "Feature", "properties": {"norad_id": 38130, "name": "FENGYUN 1C DEB", "group": "fengyun-1c-debris", "lat": -16.145527540498904, "lon": 31.96522811646154, "alt_km": 981.1300989019173, "timestamp": "2025-12-02T19:35:50.845739+00:00", "meta": {"OBJECT_NAME": "FENGYUN 1C DEB", "OBJECT_ID": "1999-025EQB", "EPOCH": "2025-11-28T09:19:02.490528", "MEAN_MOTION": 13.7720595, "ECCENTRICITY": 0.02085156, "INCLINATION": 98.6035, "RA_OF_ASC_NODE": 25.4413, "ARG_OF_PERICENTER": 263.5047, "MEAN_ANOMALY": 94.2329, "EPHEMERIS_TYPE": 0, "CLASSIFICATION_TYPE": "U", "NORAD_CAT_ID": 38130, "ELEMENT_SET_NO": 999, "REV_AT_EPOCH": 69085, "BSTAR": 0.0016964005, "MEAN_MOTION_DOT": 1.933e-05, "MEAN_MOTION_DDOT": 0}, "tle": {"line1": "1 38130U 99025EQB 25332.38822327  .00001933  00000+0  16964-2 0  9993", "line2": "2 38130  98.6035  25.4413 0208515 263.5047  94.2329 13.77205950690851"}}, "geometry": {"type": "Point", "coordinates": [31.96522811646154, -16.145527540498904]}}, {"type": "Feature", "properties": {"norad_id": 38135, "name": "FENGYUN 1C DEB", "group": "fengyun-1c-debris", "lat": 76.33050346621884, "lon": -5.084610139235496, "alt_km": 649.8732865536613, "timestamp": "2025-12-02T19:35:50.845749+00:00", "meta": {"OBJECT_NAME": "FENGYUN 1C DEB", "OBJECT_ID": "1999-025EQG", "EPOCH": "2025-12-01T23:00:54.921600", "MEAN_MOTION": 14.25234724, "ECCENTRICITY": 0.02234685, "INCLINATION": 98.6604, "RA_OF_ASC_NODE": 32.8729, "ARG_OF_PERICENTER": 102.7051, "MEAN_ANOMALY": 259.9208, "EPHEMERIS_TYPE": 0, "CLASSIFICATION_TYPE": "U", "NORAD_CAT_ID": 38135, "ELEMENT_SET_NO": 999, "REV_AT_EPOCH": 60887, "BSTAR": 0.00054370055, "MEAN_MOTION_DOT": 1.614e-05, "MEAN_MOTION_DDOT": 0}, "tle": {"line1": "1 38135U 99025EQG 25335.95896900  .00001614  00000+0  54370-3 0  9992", "line2": "2 38135  98.6604  32.8729 0223468 102.7051 259.9208 14.25234724608875"}}, "geometry": {"type": "Point", "coordinates": [-5.084610139235496, 76.33050346621884]}}]}